# From MPC108599
360P/WISE,e,24.0799,2.2182,354.1245,3.704620,0.1382256,0.49799266,78.4561,03/09.0/2019,2000,g 19.5,6.0
# From MPC112394
361P/Spacewatch,e,13.8820,203.2729,219.1920,4.945278,0.0896227,0.43781910,22.3697,03/09.0/2019,2000,g 12.0,4.0
# From MPEC 2017-V13
362P/,e,15.5675,192.6108,53.5583,3.965006,0.1248356,0.28050192,115.7191,03/09.0/2019,2000,g 12.9,2.0
# From MPC110086
363P/Lemmon,e,3.9733,169.8526,315.4249,3.409139,0.1565802,0.55753219,54.9414,03/09.0/2019,2000,g 17.5,4.0
# From MPC112394
364P/PANSTARRS,e,12.1548,46.2208,211.9399,2.877561,0.2019144,0.72269948,52.0199,03/09.0/2019,2000,g 17.0,2.0
# From MPC111775
365P/PANSTARRS,e,9.8401,87.4370,66.3486,3.184945,0.1734008,0.57374365,67.8328,03/09.0/2019,2000,g 17.0,4.0
# From MPC110086
366P/Spacewatch,e,8.8598,70.7563,153.2462,3.497802,0.1506646,0.34893102,34.7172,03/09.0/2019,2000,g 15.0,4.0
# From MPC112395
367P/Catalina,e,8.4639,58.7182,172.9828,3.506605,0.1500976,0.28101868,39.0513,03/09.0/2019,2000,g 17.5,2.0
# From MPC112395
368P/NEAT,e,15.4850,257.9771,118.8025,5.526216,0.0758686,0.62583170,13.3341,03/09.0/2019,2000,g 14.0,4.0
# From MPC112395
369P/Hill,e,10.3080,47.3200,13.2780,4.390037,0.1071524,0.55419566,15.5219,03/09.0/2019,2000,g 15.0,4.0
# From MPC112395
370P/NEAT,e,19.3970,55.1624,356.7607,6.443687,0.0602563,0.61433334,16.4234,03/09.0/2019,2000,g 13.0,4.0
# From MPC112395
371P/LINEAR-Skiff,e,17.3798,67.3347,308.4770,4.181509,0.1152669,0.47602150,17.9143,03/09.0/2019,2000,g 16.0,4.0
# From MPC111775
372P/McNaught,e,9.5103,325.8403,26.9471,4.498389,0.1033043,0.15188916,14.5206,03/09.0/2019,2000,g 13.5,4.0
# From MPC112395
373P/Rinner,e,13.7577,231.9584,221.2146,3.807879,0.1326415,0.39245812,355.8676,03/09.0/2019,2000,g 14.5,4.0
# From MPC112395
374P/Larson,e,10.7577,7.9335,51.5886,4.977664,0.0887495,0.46227472,5.0721,03/09.0/2019,2000,g 14.0,4.0
# From MPC112395
375P/Hill,e,17.3658,359.9634,119.4283,5.561801,0.0751417,0.65924788,5.8281,03/09.0/2019,2000,g 16.0,4.0
